#aV2022  5  6  0  0  0.00000000     288 DD+AD WGS84 FIT  NGA
## 2208 432000.00000000   300.00000000 59705 0.0000000000000
+   32     1  2  3  4  5  6  7  8  9 10 11 12 13 14 15 16 17
+         18 19 20 21 22 23 24 25 26 27 28 29 30 31 32  0  0
+          0  0  0  0  0  0  0  0  0  0  0  0  0  0  0  0  0
+          0  0  0  0  0  0  0  0  0  0  0  0  0  0  0  0  0
+          0  0  0  0  0  0  0  0  0  0  0  0  0  0  0  0  0
++         2  2  2  2  2  2  2  2  2  2  2  2  2  2  2  2  2
++         2  2  2  2  2  2  2  2  2  2  2  2  2  2  2  0  0
++         0  0  0  0  0  0  0  0  0  0  0  0  0  0  0  0  0
++         0  0  0  0  0  0  0  0  0  0  0  0  0  0  0  0  0
++         0  0  0  0  0  0  0  0  0  0  0  0  0  0  0  0  0
%c cc cc ccc ccc cccc cccc cccc cccc ccccc ccccc ccccc ccccc
%c cc cc ccc ccc cccc cccc cccc cccc ccccc ccccc ccccc ccccc
%f  0.0000000  0.000000000  0.00000000000  0.000000000000000
%f  0.0000000  0.000000000  0.00000000000  0.000000000000000
%i    0    0    0    0      0      0      0      0         0
%i    0    0    0    0      0      0      0      0         0
/*      NGA, ST. LOUIS,MO.                                  
/*   EPHEMERIS COMPUTED FROM 2 DAYS OF DATA                 
/*   EPOCHA v7 SMOOTHER                                     
/*   G2139 IERS2010 SATIGS SATAPC                           
*  2022  5  6 21 55  0.00000000
P  1  19823.197246  13975.062768 -11528.189035    368.708012                    
V  1 -13801.876551  -2800.593328 -27503.160568     -0.084125                    
P  2   1560.433339 -15380.438912  22246.977675   -653.277602                    
V  2  26168.289785   5218.513571   1972.731451     -0.000008                    
P  3  12772.872465  20535.422827  11006.432157   -234.737684                    
V  3   1397.288988  14155.880010 -27648.143515     -0.140984                    
P  4  10909.220980  10641.870310  21764.061188   -169.642070                    
V  4 -20512.202963  18481.601596   1161.718954      0.034476                    
P  5  -5038.114253 -25752.926887   3373.963591    -80.905224                    
V  5   4081.236485   3503.753092  31463.170170     -0.013508                    
P  6  17393.648283  -7696.761521  18636.967186    293.506794                    
V  6  22193.801873   7606.556911 -17551.795454      0.143423                    
P  7  26048.759330   5404.060033  -3081.691643    321.768855                    
V  7   3402.494669   3830.417164  30899.298938      0.005632                    
P  8   2668.052275  17090.492166 -20094.603917    -66.935278                    
V  8 -18899.596901  17197.496915  12486.538447     -0.016322                    
P  9  18706.351472    162.934260  18799.697344   -338.678920                    
V  9 -15937.556507  18034.184283  15618.021465      0.027931                    
P 10 -13076.964134   8016.712534 -21501.402250   -404.818933                    
V 10  -7250.839684 -26692.647889  -5787.279521     -0.139828                    
P 11   2395.081762 -15143.814743  21684.725767    -28.433843                    
V 11  26077.328941   8846.654592   3282.436623      0.053310                    
P 12  -9290.904355 -23714.326799   7473.404569   -211.466461                    
V 12    649.387080 -10069.558043 -29950.275335     -0.058291                    
P 13   7519.648249 -19490.528641 -16451.004905    306.948012                    
V 13  17729.510616 -10746.646717  21196.523827      0.067548                    
P 14  14183.280512  -6662.477391 -21440.276751   -106.992774                    
V 14   5957.424930  26598.478237  -4411.076251     -0.019944                    
P 15  -5775.676911 -16751.133451 -20115.928370    -63.288428                    
V 15  16692.106378 -18458.076975  11116.620885      0.029706                    
P 16  -1233.581337  25168.917570   7337.178654   -498.556530                    
V 16  -4275.276253  -9252.481594  30358.933402     -0.034306                    
P 17  21989.622140 -13630.078362  -5685.326935    609.455650                    
V 17  -4491.748448   6695.018706 -31024.779528      0.046890                    
P 18 -25797.144985  -5702.229900  -3260.364168    176.981939                    
V 18  -3226.702256  -3473.293565  31568.080750     -0.099549                    
P 19  20563.750214 -16596.533104    810.016111    153.914541                    
V 19   2576.601516   1125.293737 -32239.475378      0.049940                    
P 20    896.900471 -23005.227601  13443.948278    515.488970                    
V 20   8895.028390  14721.815404  24372.586811     -0.001748                    
P 21  11852.992808  15217.854124 -17903.407088    160.948455                    
V 21 -23598.782520  -3438.253888 -17249.947642      0.002123                    
P 22 -18324.818481  18704.704290   4232.483499    254.934173                    
V 22  -5604.830066    856.938472 -31274.282459      0.061218                    
P 23 -16000.147554  -4144.033332 -20822.802337    -20.130308                    
V 23  -6305.803894 -25616.379181   9849.209704     -0.025892                    
P 24 -17065.311714 -14640.598751 -14748.400001    245.556821                    
V 24  18213.879340   1408.123591 -22527.714962     -0.063607                    
P 25 -15739.447502 -12262.275282  17375.749195    321.382591                    
V 25  -3923.643593 -22259.320891 -18681.730557      0.048697                    
P 26  -7170.475080  18963.520489  16912.062231    203.821999                    
V 26  -8653.053342 -20183.516415  19172.511255      0.026518                    
P 27  -9114.458913  21152.043623 -13080.567190    198.330942                    
V 27 -13334.559498   9792.036443  25923.905994      0.069174                    
P 28  10185.573721 -16069.045908 -18118.416096    362.201245                    
V 28   4954.984668  23481.964945 -17326.886513     -0.058879                    
P 29 -18065.242536  -1886.401827  19349.877765   -510.899940                    
V 29  18326.147429 -16453.828540  15399.921332     -0.040222                    
P 30  23758.519942  -1844.228413 -11908.806925   -526.865449                    
V 30  13699.956961   7179.281842  25788.712138     -0.015237                    
P 31 -15736.167620   9332.742888  19284.490653   -176.524210                    
V 31 -23142.153516  -8511.259582 -14209.796715     -0.015879                    
P 32 -20649.920101  15938.407689  -4278.671568   -121.239290                    
V 32   1919.357431  -6117.375116 -31186.028083     -0.085146                    
EOF
